0 COSMOS 1360
1 13163U 82040D   13283.17087674 -.00000020  00000-0 -23842-4 0  4582
2 13163 074.0142 351.1694 0022666 181.4453 206.2449 12.50131030158952
0 COSMOS 1360
1 13163U 82040D   13287.18040266  .00000020  00000-0  23269-3 0  4606
2 13163 074.0134 345.8346 0022586 175.4746 250.9533 12.50130882159456
0 COSMOS 1360
1 13163U 82040D   13289.50037306  .00000005  00000-0  13996-3 0  4615
2 13163 074.0128 342.7476 0022543 171.9867 251.9180 12.50131093159743
0 COSMOS 1360
1 13163U 82040D   13291.51013778 -.00000012  00000-0  24228-4 0  4627
2 13163 074.0125 340.0731 0022504 168.9603 296.8162 12.50131330159995
0 COSMOS 1360
1 13163U 82040D   13293.83298735 -.00000022  00000-0 -42815-4 0  4637
2 13163 074.0124 336.9818 0022463 165.4523 310.7575 12.50131389160283
0 COSMOS 1360
1 13163U 82040D   13295.98515494 -.00000007  00000-0  59306-4 0  4645
2 13163 074.0122 334.1179 0022416 162.1841 276.5668 12.50131269160555
